[{"OBJECT_NAME":"STARLINK-5611","OBJECT_ID":"2023-028W","EPOCH":"2026-03-09T20:34:28.656768","MEAN_MOTION":14.98332841,"ECCENTRICITY":0.00031081,"INCLINATION":69.9998,"RA_OF_ASC_NODE":224.2157,"ARG_OF_PERICENTER":273.175,"MEAN_ANOMALY":86.9054,"EPHEMERIS_TYPE":0,"CLASSIFICATION_TYPE":"U","NORAD_CAT_ID":55761,"ELEMENT_SET_NO":999,"REV_AT_EPOCH":16655,"BSTAR":4.0943828e-5,"MEAN_MOTION_DOT":3.96e-6,"MEAN_MOTION_DDOT":0},{"OBJECT_NAME":"GNOMES-4","OBJECT_ID":"2023-185A","EPOCH":"2026-03-09T23:48:26.932032","MEAN_MOTION":15.00198915,"ECCENTRICITY":0.000923,"INCLINATION":97.5118,"RA_OF_ASC_NODE":129.6992,"ARG_OF_PERICENTER":282.2655,"MEAN_ANOMALY":77.7535,"EPHEMERIS_TYPE":0,"CLASSIFICATION_TYPE":"U","NORAD_CAT_ID":58462,"ELEMENT_SET_NO":999,"REV_AT_EPOCH":12441,"BSTAR":0.00042532845,"MEAN_MOTION_DOT":5.265e-5,"MEAN_MOTION_DDOT":0}]
